CCSDS_OMM_VERS = 2.0
CREATION_DATE  = 
ORIGINATOR     = 

OBJECT_NAME    = SL-3 R/B
OBJECT_ID      = 1988-032B
CENTER_NAME    = EARTH
REF_FRAME      = TEME
TIME_SYSTEM    = UTC
MEAN_ELEMENT_THEORY = SGP/SGP4

EPOCH          = 2026-03-25T19:05:28.568256
MEAN_MOTION    = 15.20082191
ECCENTRICITY   = .002599
INCLINATION    = 97.5214
RA_OF_ASC_NODE = 67.9938
ARG_OF_PERICENTER = 173.7171
MEAN_ANOMALY   = 186.4395

EPHEMERIS_TYPE = 0
CLASSIFICATION_TYPE = U
NORAD_CAT_ID   = 19046
ELEMENT_SET_NO = 999
REV_AT_EPOCH   = 5455
BSTAR          = .21506E-3
MEAN_MOTION_DOT = .4613E-4
MEAN_MOTION_DDOT = 0

CCSDS_OMM_VERS = 2.0
CREATION_DATE  = 
ORIGINATOR     = 

OBJECT_NAME    = SL-16 R/B
OBJECT_ID      = 1988-039B
CENTER_NAME    = EARTH
REF_FRAME      = TEME
TIME_SYSTEM    = UTC
MEAN_ELEMENT_THEORY = SGP/SGP4

EPOCH          = 2026-03-25T13:15:39.594240
MEAN_MOTION    = 14.19618060
ECCENTRICITY   = .002353
INCLINATION    = 71.0161
RA_OF_ASC_NODE = 35.0036
ARG_OF_PERICENTER = 311.5493
MEAN_ANOMALY   = 48.3614

EPHEMERIS_TYPE = 0
CLASSIFICATION_TYPE = U
NORAD_CAT_ID   = 19120
ELEMENT_SET_NO = 999
REV_AT_EPOCH   = 96063
BSTAR          = .58883E-4
MEAN_MOTION_DOT = .76E-6
MEAN_MOTION_DDOT = 0

CCSDS_OMM_VERS = 2.0
CREATION_DATE  = 
ORIGINATOR     = 

OBJECT_NAME    = COSMOS 1953
OBJECT_ID      = 1988-050A
CENTER_NAME    = EARTH
REF_FRAME      = TEME
TIME_SYSTEM    = UTC
MEAN_ELEMENT_THEORY = SGP/SGP4

EPOCH          = 2026-03-25T14:20:36.760416
MEAN_MOTION    = 15.28771621
ECCENTRICITY   = .0012514
INCLINATION    = 82.5080
RA_OF_ASC_NODE = 142.2460
ARG_OF_PERICENTER = 72.9317
MEAN_ANOMALY   = 287.3293

EPHEMERIS_TYPE = 0
CLASSIFICATION_TYPE = U
NORAD_CAT_ID   = 19210
ELEMENT_SET_NO = 999
REV_AT_EPOCH   = 4021
BSTAR          = .22524E-3
MEAN_MOTION_DOT = .6344E-4
MEAN_MOTION_DDOT = 0

CCSDS_OMM_VERS = 2.0
CREATION_DATE  = 
ORIGINATOR     = 

OBJECT_NAME    = SL-8 R/B
OBJECT_ID      = 1988-053B
CENTER_NAME    = EARTH
REF_FRAME      = TEME
TIME_SYSTEM    = UTC
MEAN_ELEMENT_THEORY = SGP/SGP4

EPOCH          = 2026-03-25T17:43:06.065760
MEAN_MOTION    = 14.38926588
ECCENTRICITY   = .0021504
INCLINATION    = 74.0452
RA_OF_ASC_NODE = 82.8808
ARG_OF_PERICENTER = 260.0512
MEAN_ANOMALY   = 272.8688

EPHEMERIS_TYPE = 0
CLASSIFICATION_TYPE = U
NORAD_CAT_ID   = 19257
ELEMENT_SET_NO = 999
REV_AT_EPOCH   = 97890
BSTAR          = .11096E-3
MEAN_MOTION_DOT = .316E-5
MEAN_MOTION_DDOT = 0

CCSDS_OMM_VERS = 2.0
CREATION_DATE  = 
ORIGINATOR     = 

OBJECT_NAME    = COSMOS 1975
OBJECT_ID      = 1988-093A
CENTER_NAME    = EARTH
REF_FRAME      = TEME
TIME_SYSTEM    = UTC
MEAN_ELEMENT_THEORY = SGP/SGP4

EPOCH          = 2026-03-25T18:24:55.118304
MEAN_MOTION    = 15.28281001
ECCENTRICITY   = .0013303
INCLINATION    = 82.5168
RA_OF_ASC_NODE = 101.5399
ARG_OF_PERICENTER = 111.7174
MEAN_ANOMALY   = 248.5483

EPHEMERIS_TYPE = 0
CLASSIFICATION_TYPE = U
NORAD_CAT_ID   = 19573
ELEMENT_SET_NO = 999
REV_AT_EPOCH   = 2186
BSTAR          = .22574E-3
MEAN_MOTION_DOT = .6266E-4
MEAN_MOTION_DDOT = 0

CCSDS_OMM_VERS = 2.0
CREATION_DATE  = 
ORIGINATOR     = 

OBJECT_NAME    = SL-14 R/B
OBJECT_ID      = 1988-093B
CENTER_NAME    = EARTH
REF_FRAME      = TEME
TIME_SYSTEM    = UTC
MEAN_ELEMENT_THEORY = SGP/SGP4

EPOCH          = 2026-03-25T21:27:05.419008
MEAN_MOTION    = 14.85675235
ECCENTRICITY   = .002037
INCLINATION    = 82.5336
RA_OF_ASC_NODE = 26.8342
ARG_OF_PERICENTER = 349.0579
MEAN_ANOMALY   = 71.2125

EPHEMERIS_TYPE = 0
CLASSIFICATION_TYPE = U
NORAD_CAT_ID   = 19574
ELEMENT_SET_NO = 999
REV_AT_EPOCH   = 342
BSTAR          = .61852E-4
MEAN_MOTION_DOT = .562E-5
MEAN_MOTION_DDOT = 0

CCSDS_OMM_VERS = 2.0
CREATION_DATE  = 
ORIGINATOR     = 

OBJECT_NAME    = SL-16 R/B
OBJECT_ID      = 1988-102B
CENTER_NAME    = EARTH
REF_FRAME      = TEME
TIME_SYSTEM    = UTC
MEAN_ELEMENT_THEORY = SGP/SGP4

EPOCH          = 2026-03-25T12:21:54.251136
MEAN_MOTION    = 14.16154450
ECCENTRICITY   = .0014976
INCLINATION    = 70.9977
RA_OF_ASC_NODE = 118.1993
ARG_OF_PERICENTER = 337.5506
MEAN_ANOMALY   = 22.4960

EPHEMERIS_TYPE = 0
CLASSIFICATION_TYPE = U
NORAD_CAT_ID   = 19650
ELEMENT_SET_NO = 999
REV_AT_EPOCH   = 92913
BSTAR          = -.96747E-4
MEAN_MOTION_DOT = -.24E-5
MEAN_MOTION_DDOT = 0

CCSDS_OMM_VERS = 2.0
CREATION_DATE  = 
ORIGINATOR     = 

OBJECT_NAME    = INTERCOSMOS 24
OBJECT_ID      = 1989-080A
CENTER_NAME    = EARTH
REF_FRAME      = TEME
TIME_SYSTEM    = UTC
MEAN_ELEMENT_THEORY = SGP/SGP4

EPOCH          = 2026-03-25T18:26:17.327904
MEAN_MOTION    = 12.59578841
ECCENTRICITY   = .1186791
INCLINATION    = 82.6011
RA_OF_ASC_NODE = 93.9306
ARG_OF_PERICENTER = 255.4648
MEAN_ANOMALY   = 91.2158

EPHEMERIS_TYPE = 0
CLASSIFICATION_TYPE = U
NORAD_CAT_ID   = 20261
ELEMENT_SET_NO = 999
REV_AT_EPOCH   = 66882
BSTAR          = .1563E-3
MEAN_MOTION_DOT = .527E-5
MEAN_MOTION_DDOT = 0

CCSDS_OMM_VERS = 2.0
CREATION_DATE  = 
ORIGINATOR     = 

OBJECT_NAME    = SL-14 R/B
OBJECT_ID      = 1989-080C
CENTER_NAME    = EARTH
REF_FRAME      = TEME
TIME_SYSTEM    = UTC
MEAN_ELEMENT_THEORY = SGP/SGP4

EPOCH          = 2026-03-25T11:30:36.550944
MEAN_MOTION    = 12.50509070
ECCENTRICITY   = .1230873
INCLINATION    = 82.5962
RA_OF_ASC_NODE = 163.0542
ARG_OF_PERICENTER = 148.6756
MEAN_ANOMALY   = 219.4029

EPHEMERIS_TYPE = 0
CLASSIFICATION_TYPE = U
NORAD_CAT_ID   = 20262
ELEMENT_SET_NO = 999
REV_AT_EPOCH   = 66212
BSTAR          = .11675652E-3
MEAN_MOTION_DOT = .414E-5
MEAN_MOTION_DDOT = 0

CCSDS_OMM_VERS = 2.0
CREATION_DATE  = 
ORIGINATOR     = 

OBJECT_NAME    = DELTA 1 R/B
OBJECT_ID      = 1989-089B
CENTER_NAME    = EARTH
REF_FRAME      = TEME
TIME_SYSTEM    = UTC
MEAN_ELEMENT_THEORY = SGP/SGP4

EPOCH          = 2026-03-25T19:55:18.541344
MEAN_MOTION    = 14.50675819
ECCENTRICITY   = .007063
INCLINATION    = 97.0694
RA_OF_ASC_NODE = 289.7000
ARG_OF_PERICENTER = 72.0042
MEAN_ANOMALY   = 288.8838

EPHEMERIS_TYPE = 0
CLASSIFICATION_TYPE = U
NORAD_CAT_ID   = 20323
ELEMENT_SET_NO = 999
REV_AT_EPOCH   = 89807
BSTAR          = .84527E-4
MEAN_MOTION_DOT = .308E-5
MEAN_MOTION_DDOT = 0

CCSDS_OMM_VERS = 2.0
CREATION_DATE  = 
ORIGINATOR     = 

OBJECT_NAME    = ARIANE 40 R/B
OBJECT_ID      = 1990-005H
CENTER_NAME    = EARTH
REF_FRAME      = TEME
TIME_SYSTEM    = UTC
MEAN_ELEMENT_THEORY = SGP/SGP4

EPOCH          = 2026-03-25T14:06:39.578112
MEAN_MOTION    = 14.39880607
ECCENTRICITY   = .0010832
INCLINATION    = 98.3050
RA_OF_ASC_NODE = 144.7732
ARG_OF_PERICENTER = 151.5722
MEAN_ANOMALY   = 208.6059

EPHEMERIS_TYPE = 0
CLASSIFICATION_TYPE = U
NORAD_CAT_ID   = 20443
ELEMENT_SET_NO = 999
REV_AT_EPOCH   = 89509
BSTAR          = .98759E-4
MEAN_MOTION_DOT = .268E-5
MEAN_MOTION_DDOT = 0

CCSDS_OMM_VERS = 2.0
CREATION_DATE  = 
ORIGINATOR     = 

OBJECT_NAME    = DELTA 2 R/B(1)
OBJECT_ID      = 1990-008B
CENTER_NAME    = EARTH
REF_FRAME      = TEME
TIME_SYSTEM    = UTC
MEAN_ELEMENT_THEORY = SGP/SGP4

EPOCH          = 2026-03-25T15:52:22.139040
MEAN_MOTION    = 15.58029956
ECCENTRICITY   = .0078997
INCLINATION    = 35.6038
RA_OF_ASC_NODE = 69.8711
ARG_OF_PERICENTER = 47.6487
MEAN_ANOMALY   = 313.0906

EPHEMERIS_TYPE = 0
CLASSIFICATION_TYPE = U
NORAD_CAT_ID   = 20453
ELEMENT_SET_NO = 999
REV_AT_EPOCH   = 92862
BSTAR          = .74987E-3
MEAN_MOTION_DOT = .67931E-3
MEAN_MOTION_DDOT = 0

