SL-3 R/B                
1 19046U 88032B   26084.79546954  .00004613  00000+0  21506-3 0  9990
2 19046  97.5214  67.9938 0025990 173.7171 186.4395 15.20082191 54558
SL-16 R/B               
1 19120U 88039B   26084.55254160  .00000076  00000+0  58883-4 0  9997
2 19120  71.0161  35.0036 0023530 311.5493  48.3614 14.19618060960633
COSMOS 1953             
1 19210U 88050A   26084.59764769  .00006344  00000+0  22524-3 0  9991
2 19210  82.5080 142.2460 0012514  72.9317 287.3293 15.28771621 40210
SL-8 R/B                
1 19257U 88053B   26084.73826465  .00000316  00000+0  11096-3 0  9998
2 19257  74.0452  82.8808 0021504 260.0512 272.8688 14.38926588978908
COSMOS 1975             
1 19573U 88093A   26084.76730461  .00006266  00000+0  22574-3 0  9999
2 19573  82.5168 101.5399 0013303 111.7174 248.5483 15.28281001 21866
SL-14 R/B               
1 19574U 88093B   26084.89381272  .00000562  00000+0  61852-4 0  9992
2 19574  82.5336  26.8342 0020370 349.0579  71.2125 14.85675235  3422
SL-16 R/B               
1 19650U 88102B   26084.51521124 -.00000240  00000+0 -96747-4 0  9995
2 19650  70.9977 118.1993 0014976 337.5506  22.4960 14.16154450929138
INTERCOSMOS 24          
1 20261U 89080A   26084.76825611  .00000527  00000+0  15630-3 0  9993
2 20261  82.6011  93.9306 1186791 255.4648  91.2158 12.59578841668824
SL-14 R/B               
1 20262U 89080C   26084.47958971  .00000414  00000+0  11676-3 0  9999
2 20262  82.5962 163.0542 1230873 148.6756 219.4029 12.50509070662121
DELTA 1 R/B             
1 20323U 89089B   26084.83007571  .00000308  00000+0  84527-4 0  9995
2 20323  97.0694 289.7000 0070630  72.0042 288.8838 14.50675819898077
ARIANE 40 R/B           
1 20443U 90005H   26084.58795808  .00000268  00000+0  98759-4 0  9994
2 20443  98.3050 144.7732 0010832 151.5722 208.6059 14.39880607895092
DELTA 2 R/B(1)          
1 20453U 90008B   26084.66136735  .00067931  00000+0  74987-3 0  9991
2 20453  35.6038  69.8711 0078997  47.6487 313.0906 15.58029956928628
